{"fetched_at":"2026-07-17T17:38:31.795Z","source":"https://celestrak.org/NORAD/elements/gp.php?NAME=RADARSAT&FORMAT=JSON","constellation":"radarsat-2","records":[{"OBJECT_NAME":"RADARSAT-2","OBJECT_ID":"2007-061A","EPOCH":"2026-07-17T08:02:40.995744","CLASSIFICATION_TYPE":"U","MEAN_MOTION":14.29984645,"ECCENTRICITY":0.00013195,"INCLINATION":98.5778,"RA_OF_ASC_NODE":204.8376,"ARG_OF_PERICENTER":83.7576,"MEAN_ANOMALY":276.3757,"EPHEMERIS_TYPE":0,"NORAD_CAT_ID":32382,"ELEMENT_SET_NO":999,"REV_AT_EPOCH":97026,"BSTAR":0.00014118694,"MEAN_MOTION_DOT":0.0000032,"MEAN_MOTION_DDOT":0}]}
