RADARSAT-2              
1 32382U 07061A   26198.33519671  .00000320  00000+0  14119-3 0  9996
2 32382  98.5778 204.8376 0001319  83.7576 276.3757 14.29984645970267
